COMMENT,ORIGINATOR,NORAD_CAT_ID,OBJECT_NAME,OBJECT_TYPE,CLASSIFICATION_TYPE,INTLDES,EPOCH,EPOCH_MICROSECONDS,MEAN_MOTION,ECCENTRICITY,INCLINATION,RA_OF_ASC_NODE,ARG_OF_PERICENTER,MEAN_ANOMALY,EPHEMERIS_TYPE,ELEMENT_SET_NO,REV_AT_EPOCH,BSTAR,MEAN_MOTION_DOT,MEAN_MOTION_DDOT,FILE,TLE_LINE0,TLE_LINE1,TLE_LINE2,OBJECT_ID,OBJECT_NUMBER,SEMIMAJOR_AXIS,PERIOD,APOGEE,PERIGEE,DECAYED
"GENERATED VIA SPACETRACK.ORG API","18 SPCS","49181","STARLINK-3059","PAYLOAD","U","21082BD","2023-10-13 21:47:28","820544","14.98332292","0.0002869","70","347.661","272.1029","87.9802","0","999","11568","0.00010624","0.00001175","0","4033175","0 STARLINK-3059","1 49181U 21082BD  23286.90797246  .00001175  00000-0  10624-3 0  9991","2 49181  70.0000 347.6610 0002869 272.1029  87.9802 14.98332292115685","2021-082BD","49181","6950.186","96.107","574.045","570.057","0"
"GENERATED VIA SPACETRACK.ORG API","18 SPCS","56496","STARLINK-5526","PAYLOAD","U","23064BA","2023-10-13 22:42:25","46208","15.69937476","0.0003532","70","166.0632","269.8749","90.2042","0","999","2454","0.000061615","0.00007206","0","4033175","0 STARLINK-5526","1 56496U 23064BA  23286.94612322  .00007206  00000-0  61615-4 0  9993","2 56496  70.0000 166.0632 0003532 269.8749  90.2042 15.69937476 24540","2023-064BA","56496","6737.213","91.723","361.457","356.698","0"
"GENERATED VIA SPACETRACK.ORG API","18 SPCS","55439","STARLINK-5634","PAYLOAD","U","23014BA","2023-10-14 00:59:34","993536","14.98340819","0.0002724","70","157.3967","268.3333","91.7514","0","999","3866","0.00012674","0.0000142","0","4033219","0 STARLINK-5634","1 55439U 23014BA  23287.04137724  .00001420  00000-0  12674-3 0  9996","2 55439  70.0000 157.3967 0002724 268.3333  91.7514 14.98340819 38663","2023-014BA","55439","6950.159","96.106","573.918","570.131","0"
"GENERATED VIA SPACETRACK.ORG API","18 SPCS","55432","STARLINK-5637","PAYLOAD","U","23014AT","2023-10-14 02:05:39","705504","14.98347182","0.0003037","70","157.1548","266.1077","93.9735","0","999","3867","0.00014148","0.00001596","0","4033213","0 STARLINK-5637","1 55432U 23014AT  23287.08726511  .00001596  00000-0  14148-3 0  9993","2 55432  70.0000 157.1548 0003037 266.1077  93.9735 14.98347182 38678","2023-014AT","55432","6950.140","96.106","574.116","569.894","0"
"GENERATED VIA SPACETRACK.ORG API","18 SPCS","56483","STARLINK-5868","PAYLOAD","U","23064AM","2023-10-14 03:06:18","393120","14.98337375","0.0002773","70","176.9194","269.9844","90.0997","0","999","2465","0.00016104","0.00001829","0","4033390","0 STARLINK-5868","1 56483U 23064AM  23287.12937955  .00001829  00000-0  16104-3 0  9999","2 56483  70.0000 176.9194 0002773 269.9844  90.0997 14.98337375 24654","2023-064AM","56483","6950.170","96.107","573.962","570.108","0"
"GENERATED VIA SPACETRACK.ORG API","18 SPCS","56486","STARLINK-6201","PAYLOAD","U","23064AQ","2023-10-14 03:18:05","82912","14.9834207","0.0002829","70","176.949","273.3199","86.7637","0","999","2465","0.00015036","0.00001702","0","4033411","0 STARLINK-6201","1 56486U 23064AQ  23287.13755883  .00001702  00000-0  15036-3 0  9994","2 56486  70.0000 176.9490 0002829 273.3199  86.7637 14.98342070 24651","2023-064AQ","56486","6950.156","96.106","573.987","570.054","0"
"GENERATED VIA SPACETRACK.ORG API","18 SPCS","56475","STARLINK-5541","PAYLOAD","U","23064AD","2023-10-14 03:36:22","194432","14.98316474","0.0002813","70","176.9928","269.1638","90.9199","0","999","2465","0.00040842","0.00004782","0","4033282","0 STARLINK-5541","1 56475U 23064AD  23287.15025688  .00004782  00000-0  40842-3 0  9991","2 56475  70.0000 176.9928 0002813 269.1638  90.9199 14.98316474 24658","2023-064AD","56475","6950.235","96.108","574.055","570.145","0"
"GENERATED VIA SPACETRACK.ORG API","18 SPCS","55420","STARLINK-5604","PAYLOAD","U","23014AF","2023-10-14 06:00:00","999648","14.99285591","0.0003088","70","96.8826","266.9658","125.3069","0","999","4017","0.0026105","0.00031982","0","4033263","0 STARLINK-5604","1 55420U 23014AF  23287.25001157  .00031982  00000-0  26105-2 0  9998","2 55420  70.0000  96.8826 0003088 266.9658 125.3069 14.99285591 40176","2023-014AF","55420","6947.239","96.046","571.250","566.959","0"
"GENERATED VIA SPACETRACK.ORG API","18 SPCS","55652","STARLINK-5487","PAYLOAD","U","23021AA","2023-10-14 06:25:21","70272","14.98343213","0.0002855","70","236.6812","267.9295","92.1538","0","999","3736","0.000090813","0.00000991","0","4033811","0 STARLINK-5487","1 55652U 23021AA  23287.26760498  .00000991  00000-0  90813-4 0  9999","2 55652  70.0000 236.6812 0002855 267.9295  92.1538 14.98343213 37365","2023-021AA","55652","6950.152","96.106","574.001","570.033","0"
"GENERATED VIA SPACETRACK.ORG API","18 SPCS","55640","STARLINK-5069","PAYLOAD","U","23021N","2023-10-14 06:31:21","800640","14.98342204","0.0002769","70","236.6945","268.895","91.1892","0","999","3706","0.000089735","0.00000978","0","4033717","0 STARLINK-5069","1 55640U 23021N   23287.27178010  .00000978  00000-0  89735-4 0  9996","2 55640  70.0000 236.6945 0002769 268.8950  91.1892 14.98342204 37069","2023-021N","55640","6950.155","96.106","573.945","570.096","0"
"GENERATED VIA SPACETRACK.ORG API","18 SPCS","55640","STARLINK-5069","PAYLOAD","U","23021N","2023-10-14 06:31:21","800640","14.98342204","0.0002769","70","236.6945","268.895","91.1892","0","999","3736","0.000089735","0.00000978","0","4033811","0 STARLINK-5069","1 55640U 23021N   23287.27178010  .00000978  00000-0  89735-4 0  9996","2 55640  70.0000 236.6945 0002769 268.8950  91.1892 14.98342204 37362","2023-021N","55640","6950.155","96.106","573.945","570.096","0"
"GENERATED VIA SPACETRACK.ORG API","18 SPCS","55786","STARLINK-5823","PAYLOAD","U","23028AX","2023-10-14 07:49:49","226016","14.98339313","0.0002858","70","256.6741","265.5565","94.5267","0","999","3560","0.000067804","0.00000716","0","4033811","0 STARLINK-5823","1 55786U 23028AX  23287.32626419  .00000716  00000-0  67804-4 0  9994","2 55786  70.0000 256.6741 0002858 265.5565  94.5267 14.98339313 35609","2023-028AX","55786","6950.164","96.106","574.015","570.043","0"
"GENERATED VIA SPACETRACK.ORG API","18 SPCS","55783","STARLINK-5825","PAYLOAD","U","23028AU","2023-10-14 08:13:49","993536","14.98355023","0.0002962","70","256.7328","271.5081","88.5739","0","999","3560","0.00020849","0.00002397","0","4033811","0 STARLINK-5825","1 55783U 23028AU  23287.34293974  .00002397  00000-0  20849-3 0  9993","2 55783  70.0000 256.7328 0002962 271.5081  88.5739 14.98355023 35607","2023-028AU","55783","6950.116","96.105","574.039","569.922","0"
"GENERATED VIA SPACETRACK.ORG API","18 SPCS","55779","STARLINK-5817","PAYLOAD","U","23028AQ","2023-10-14 08:19:50","172672","14.98342727","0.0002967","70","256.3461","270.3011","89.7808","0","999","3561","0.00013047","0.00001465","0","4033811","0 STARLINK-5817","1 55779U 23028AQ  23287.34710848  .00001465  00000-0  13047-3 0  9999","2 55779  70.0000 256.3461 0002967 270.3011  89.7808 14.98342727 35619","2023-028AQ","55779","6950.154","96.106","574.081","569.956","0"
"GENERATED VIA SPACETRACK.ORG API","18 SPCS","55436","STARLINK-5640","PAYLOAD","U","23014AX","2023-10-14 08:54:15","388416","14.98329541","0.0002595","70","156.5383","270.776","89.3102","0","999","3965","0.000045767","0.00000453","0","4033811","0 STARLINK-5640","1 55436U 23014AX  23287.37101144  .00000453  00000-0  45767-4 0  9991","2 55436  70.0000 156.5383 0002595 270.7760  89.3102 14.98329541 39655","2023-014AX","55436","6950.194","96.107","573.863","570.256","0"
"GENERATED VIA SPACETRACK.ORG API","18 SPCS","55790","STARLINK-5813","PAYLOAD","U","23028BB","2023-10-14 09:02:08","979648","14.98332758","0.0002698","70","256.4499","267.3115","92.7735","0","999","3561","0.00014442","0.00001631","0","4033811","0 STARLINK-5813","1 55790U 23028BB  23287.37649282  .00001631  00000-0  14442-3 0  9993","2 55790  70.0000 256.4499 0002698 267.3115  92.7735 14.98332758 35612","2023-028BB","55790","6950.184","96.107","573.925","570.174","0"
"GENERATED VIA SPACETRACK.ORG API","18 SPCS","56495","STARLINK-5529","PAYLOAD","U","23064AZ","2023-10-14 09:24:51","244992","15.69896654","0.0003476","70","164.8089","264.6919","95.388","0","999","2496","-0.00006985","-0.00008594","0","4033738","0 STARLINK-5529","1 56495U 23064AZ  23287.39225978 -.00008594  00000-0 -69850-4 0  9991","2 56495  70.0000 164.8089 0003476 264.6919  95.3880 15.69896654 24964","2023-064AZ","56495","6737.330","91.726","361.537","356.853","0"
"GENERATED VIA SPACETRACK.ORG API","18 SPCS","56495","STARLINK-5529","PAYLOAD","U","23064AZ","2023-10-14 09:24:51","244992","15.69896654","0.0003476","70","164.8089","264.6919","95.388","0","999","2461","-0.00006985","-0.00008594","0","4033811","0 STARLINK-5529","1 56495U 23064AZ  23287.39225978 -.00008594  00000-0 -69850-4 0  9991","2 56495  70.0000 164.8089 0003476 264.6919  95.3880 15.69896654 24616","2023-064AZ","56495","6737.330","91.726","361.537","356.853","0"
"GENERATED VIA SPACETRACK.ORG API","18 SPCS","56811","STARLINK-6063","PAYLOAD","U","23078AW","2023-10-14 09:35:11","945184","15.69897695","0.0003066","70","30.5547","277.8575","82.2272","0","999","2167","-0.000041601","-0.00005206","0","4033525","0 STARLINK-6063","1 56811U 23078AW  23287.39944381 -.00005206  00000-0 -41601-4 0  9995","2 56811  70.0000  30.5547 0003066 277.8575  82.2272 15.69897695 21674","2023-078AW","56811","6737.327","91.726","361.257","357.126","0"
"GENERATED VIA SPACETRACK.ORG API","18 SPCS","56811","STARLINK-6063","PAYLOAD","U","23078AW","2023-10-14 09:35:11","945184","15.69897695","0.0003066","70","30.5547","277.8575","82.2272","0","999","2141","-0.000041601","-0.00005206","0","4033811","0 STARLINK-6063","1 56811U 23078AW  23287.39944381 -.00005206  00000-0 -41601-4 0  9995","2 56811  70.0000  30.5547 0003066 277.8575  82.2272 15.69897695 21416","2023-078AW","56811","6737.327","91.726","361.257","357.126","0"
